NORAD_CAT_ID,OBJECT_NAME,OBJECT_TYPE,EPOCH,MEAN_MOTION,ECCENTRICITY,INCLINATION,RA_OF_ASC_NODE,ARG_OF_PERICENTER,MEAN_ANOMALY,BSTAR,MEAN_MOTION_DOT,MEAN_MOTION_DDOT,TLE_LINE0,TLE_LINE1,TLE_LINE2,SEMIMAJOR_AXIS,PERIOD,APOGEE,PERIGEE,DECAYED
52679.0,STARLINK-4031,PAYLOAD,2024-07-13 13:43:10,15.08846679,0.000118,53.2184,336.1139,97.406,262.7066,1.3462e-05,-7.4e-07,0.0,0 STARLINK-4031,1 52679U 22053Z   24195.57165235 -.00000074  00000-0  13462-4 0  9998,2 52679  53.2184 336.1139 0001180  97.4060 262.7066 15.08846679119932,6917.86,95.437,540.541,538.909,0.0
52679.0,STARLINK-4031,PAYLOAD,2024-07-13 16:53:56,15.0884766,0.0001311,53.2189,335.5218,65.46,294.6529,4.1696e-05,3.76e-06,0.0,0 STARLINK-4031,1 52679U 22053Z   24195.70413182  .00000376  00000-0  41696-4 0  9994,2 52679  53.2189 335.5218 0001311  65.4600 294.6529 15.08847660119567,6917.857,95.437,540.629,538.815,0.0
52679.0,STARLINK-4031,PAYLOAD,2024-07-14 15:09:21,15.08826517,0.0001,53.2183,331.3547,77.2107,282.8997,0.00011539,1.549e-05,0.0,0 STARLINK-4031,1 52679U 22053Z   24196.63150209  .00001549  00000-0  11539-3 0  9990,2 52679  53.2183 331.3547 0001000  77.2107 282.8997 15.08826517120094,6917.922,95.438,540.478,539.095,0.0
52679.0,STARLINK-4031,PAYLOAD,2024-07-14 18:20:06,15.08848452,0.0001249,53.2189,330.7601,70.9302,289.1825,0.00015842,2.235e-05,0.0,0 STARLINK-4031,1 52679U 22053Z   24196.76396850  .00002235  00000-0  15842-3 0  9992,2 52679  53.2189 330.7601 0001249  70.9302 289.1825 15.08848452119726,6917.855,95.437,540.584,538.856,0.0
52679.0,STARLINK-4031,PAYLOAD,2024-07-15 02:17:03,15.08837912,0.0001141,53.2181,329.2727,81.2247,278.8874,7.5921e-05,9.21e-06,0.0,0 STARLINK-4031,1 52679U 22053Z   24197.09517663  .00000921  00000-0  75921-4 0  9991,2 52679  53.2181 329.2727 0001141  81.2247 278.8874 15.08837912119777,6917.887,95.438,540.541,538.962,0.0
52679.0,STARLINK-4031,PAYLOAD,2024-07-15 15:00:08,15.08845568,0.0001109,53.2182,326.8947,74.4521,285.6593,8.6436e-06,-1.5e-06,0.0,0 STARLINK-4031,1 52679U 22053Z   24197.62509470 -.00000150  00000-0  86436-5 0  9996,2 52679  53.2182 326.8947 0001109  74.4521 285.6593 15.08845568120242,6917.863,95.437,540.496,538.961,0.0
52679.0,STARLINK-4031,PAYLOAD,2024-07-16 02:07:49,15.08849015,0.0001259,53.219,324.8142,74.9676,285.1455,5.4229e-05,5.75e-06,0.0,0 STARLINK-4031,1 52679U 22053Z   24198.08876892  .00000575  00000-0  54229-4 0  9996,2 52679  53.2190 324.8142 0001259  74.9676 285.1455 15.08849015119924,6917.853,95.437,540.589,538.847,0.0
52679.0,STARLINK-4031,PAYLOAD,2024-07-16 14:50:54,15.08852043,0.0001452,53.2195,322.4345,85.028,275.0878,6.3167e-05,7.18e-06,0.0,0 STARLINK-4031,1 52679U 22053Z   24198.61868731  .00000718  00000-0  63167-4 0  9998,2 52679  53.2195 322.4345 0001452  85.0280 275.0878 15.08852043120392,6917.844,95.437,540.713,538.704,0.0
52679.0,STARLINK-4031,PAYLOAD,2024-07-17 13:06:19,15.08838224,0.0001211,53.2174,318.2729,78.2737,281.8391,4.5298e-05,4.33e-06,0.0,0 STARLINK-4031,1 52679U 22053Z   24199.54605905  .00000433  00000-0  45298-4 0  9992,2 52679  53.2174 318.2729 0001211  78.2737 281.8391 15.08838224120145,6917.886,95.438,540.589,538.913,0.0
52679.0,STARLINK-4031,PAYLOAD,2024-07-17 14:41:42,15.08840747,0.0001185,53.2172,317.9745,94.3351,265.7776,7.0949e-05,8.42e-06,0.0,0 STARLINK-4031,1 52679U 22053Z   24199.61229711  .00000842  00000-0  70949-4 0  9992,2 52679  53.2172 317.9745 0001185  94.3351 265.7776 15.08840747120543,6917.878,95.438,540.563,538.923,0.0
52679.0,STARLINK-4031,PAYLOAD,2024-07-18 12:57:07,15.08829835,0.0001506,53.2179,313.81,86.821,273.2954,-4.6893e-05,-1.034e-05,0.0,0 STARLINK-4031,1 52679U 22053Z   24200.53966730 -.00001034  00000-0 -46893-4 0  9992,2 52679  53.2179 313.8100 0001506  86.8210 273.2954 15.08829835120296,6917.911,95.438,540.818,538.735,0.0
52679.0,STARLINK-4031,PAYLOAD,2024-07-18 14:32:30,15.08829915,0.0001308,53.2185,313.5184,89.3625,270.7517,3.4692e-05,2.64e-06,0.0,0 STARLINK-4031,1 52679U 22053Z   24200.60590844  .00000264  00000-0  34692-4 0  9995,2 52679  53.2185 313.5184 0001308  89.3625 270.7517 15.08829915120690,6917.911,95.438,540.681,538.871,0.0
52679.0,STARLINK-4031,PAYLOAD,2024-07-19 12:47:53,15.08846824,0.0001389,53.2189,309.3551,98.6368,261.4782,0.00033749,5.088e-05,0.0,0 STARLINK-4031,1 52679U 22053Z   24201.53326359  .00005088  00000-0  33749-3 0  9996,2 52679  53.2189 309.3551 0001389  98.6368 261.4782 15.08846824120443,6917.86,95.437,540.685,538.764,0.0
52679.0,STARLINK-4031,PAYLOAD,2024-07-19 14:23:16,15.0885987,0.0001136,53.217,309.0519,78.962,281.15,0.00062267,9.641e-05,0.0,0 STARLINK-4031,1 52679U 22053Z   24201.59950015  .00009641  00000-0  62267-3 0  9990,2 52679  53.2170 309.0519 0001136  78.9620 281.1500 15.08859870120842,6917.82,95.436,540.471,538.899,0.0
52679.0,STARLINK-4031,PAYLOAD,2024-07-19 23:55:35,15.08851068,0.0001016,53.2157,307.2718,99.3923,260.7184,0.00035607,5.385e-05,0.0,0 STARLINK-4031,1 52679U 22053Z   24201.99694058  .00005385  00000-0  35607-3 0  9995,2 52679  53.2157 307.2718 0001016  99.3923 260.7184 15.08851068120514,6917.847,95.437,540.414,539.009,0.0
52679.0,STARLINK-4031,PAYLOAD,2024-07-20 11:03:17,15.08846414,0.0001766,53.2189,305.1966,113.8565,246.2612,0.00014434,2.01e-05,0.0,0 STARLINK-4031,1 52679U 22053Z   24202.46062296  .00002010  00000-0  14434-3 0  9998,2 52679  53.2189 305.1966 0001766 113.8565 246.2612 15.08846414120588,6917.861,95.437,540.947,538.504,0.0
52679.0,STARLINK-4031,PAYLOAD,2024-07-20 14:14:03,15.08857682,0.0001296,53.2182,304.597,112.9951,247.1178,0.00035313,5.339e-05,0.0,0 STARLINK-4031,1 52679U 22053Z   24202.59309668  .00005339  00000-0  35313-3 0  9995,2 52679  53.2182 304.5970 0001296 112.9951 247.1178 15.08857682120997,6917.826,95.436,540.588,538.795,0.0
52679.0,STARLINK-4031,PAYLOAD,2024-07-21 12:29:27,15.08840416,0.0001203,53.2168,300.4287,97.2547,262.8582,-9.8429e-05,-1.854e-05,0.0,0 STARLINK-4031,1 52679U 22053Z   24203.52046272 -.00001854  00000-0 -98429-4 0  9996,2 52679  53.2168 300.4287 0001203  97.2547 262.8582 15.08840416120744,6917.879,95.438,540.576,538.912,0.0
52679.0,STARLINK-4031,PAYLOAD,2024-07-21 14:04:51,15.08841186,0.0001249,53.217,300.1315,88.5377,271.5758,-4.7387e-05,-1.042e-05,0.0,0 STARLINK-4031,1 52679U 22053Z   24203.58670309 -.00001042  00000-0 -47387-4 0  9992,2 52679  53.2170 300.1315 0001249  88.5377 271.5758 15.08841186121142,6917.877,95.437,540.606,538.878,0.0
52679.0,STARLINK-4031,PAYLOAD,2024-07-22 05:58:43,15.08835772,0.0001514,53.2172,297.1591,86.2946,273.8219,7.7899e-05,9.52e-06,0.0,0 STARLINK-4031,1 52679U 22053Z   24204.24911026  .00000952  00000-0  77899-4 0  9998,2 52679  53.2172 297.1591 0001514  86.2946 273.8219 15.08835772121249,6917.893,95.438,540.806,538.711,0.0
52679.0,STARLINK-4031,PAYLOAD,2024-07-23 12:11:02,15.08853372,0.0001363,53.217,291.5139,83.2144,276.9003,0.00034511,5.211e-05,0.0,0 STARLINK-4031,1 52679U 22053Z   24205.50766342  .00005211  00000-0  34511-3 0  9993,2 52679  53.2170 291.5139 0001363  83.2144 276.9003 15.08853372121041,6917.84,95.437,540.647,538.762,0.0
52679.0,STARLINK-4031,PAYLOAD,2024-07-24 05:40:17,15.08837604,0.00012,53.2163,288.2427,99.2208,260.892,3.7718e-05,3.12e-06,0.0,0 STARLINK-4031,1 52679U 22053Z   24206.23630884  .00000312  00000-0  37718-4 0  9995,2 52679  53.2163 288.2427 0001200  99.2208 260.8920 15.08837604121156,6917.888,95.438,540.583,538.923,0.0
52679.0,STARLINK-4031,PAYLOAD,2024-07-24 10:26:26,15.08837781,0.0001763,53.2178,287.3469,113.108,247.0098,-4.7876e-05,-1.05e-05,0.0,0 STARLINK-4031,1 52679U 22053Z   24206.43502967 -.00001050  00000-0 -47876-4 0  9995,2 52679  53.2178 287.3469 0001763 113.1080 247.0098 15.08837781121571,6917.887,95.438,540.972,538.533,0.0
52679.0,STARLINK-4031,PAYLOAD,2024-07-25 05:31:04,15.08837786,0.0001627,53.2165,283.7752,113.3433,246.7731,0.00020885,3.037e-05,0.0,0 STARLINK-4031,1 52679U 22053Z   24207.22990901  .00003037  00000-0  20885-3 0  9997,2 52679  53.2165 283.7752 0001627 113.3433 246.7731 15.08837786121693,6917.887,95.438,540.878,538.627,0.0
52679.0,STARLINK-4031,PAYLOAD,2024-07-25 10:17:13,15.08844445,0.0001524,53.2175,282.8858,100.0456,260.0708,0.0002396,3.528e-05,0.0,0 STARLINK-4031,1 52679U 22053Z   24207.42862301  .00003528  00000-0  23960-3 0  9993,2 52679  53.2175 282.8858 0001524 100.0456 260.0708 15.08844445121339,6917.867,95.437,540.786,538.678,0.0
52679.0,STARLINK-4031,PAYLOAD,2024-07-26 10:08:00,15.08842828,0.0001495,53.2159,278.4262,88.216,271.9003,0.00015094,2.115e-05,0.0,0 STARLINK-4031,1 52679U 22053Z   24208.42222704  .00002115  00000-0  15094-3 0  9991,2 52679  53.2159 278.4262 0001495  88.2160 271.9003 15.08842828121485,6917.872,95.437,540.771,538.703,0.0
52679.0,STARLINK-4031,PAYLOAD,2024-07-26 21:15:41,15.0884875,0.0001248,53.2149,276.3415,76.7052,283.4079,0.00015146,2.124e-05,0.0,0 STARLINK-4031,1 52679U 22053Z   24208.88590005  .00002124  00000-0  15146-3 0  9991,2 52679  53.2149 276.3415 0001248  76.7052 283.4079 15.08848750121941,6917.854,95.437,540.582,538.855,0.0
52679.0,STARLINK-4031,PAYLOAD,2024-07-27 09:58:47,15.08836084,0.0001628,53.2171,273.9667,94.7123,265.4055,-0.00013882,-2.496e-05,0.0,0 STARLINK-4031,1 52679U 22053Z   24209.41582775 -.00002496  00000-0 -13882-3 0  9995,2 52679  53.2171 273.9667 0001628  94.7123 265.4055 15.08836084121636,6917.892,95.438,540.884,538.631,0.0
52679.0,STARLINK-4031,PAYLOAD,2024-07-28 13:00:20,15.08844636,0.0001535,53.2174,268.9139,102.1149,258.0015,2.9012e-05,1.74e-06,0.0,0 STARLINK-4031,1 52679U 22053Z   24210.54190833  .00000174  00000-0  29012-4 0  9993,2 52679  53.2174 268.9139 0001535 102.1149 258.0015 15.08844636121801,6917.866,95.437,540.793,538.669,0.0
52679.0,STARLINK-4031,PAYLOAD,2024-07-29 12:51:08,15.08838583,0.0001616,53.2177,264.4448,94.5963,265.5213,0.00012833,1.755e-05,0.0,0 STARLINK-4031,1 52679U 22053Z   24211.53551288  .00001755  00000-0  12833-3 0  9996,2 52679  53.2177 264.4448 0001616  94.5963 265.5213 15.08838583121959,6917.885,95.438,540.868,538.632,0.0
